{
  "norad_id": 49457,
  "name": "STARLINK-3132",
  "history": [
    {
      "epoch": "2026-03-28T12:53:18.564288",
      "apogee_km": 540.6615701156497,
      "perigee_km": 538.7920865946753,
      "latitude_deg": 3.1094756271047417,
      "longitude_deg": -102.74603968020529,
      "semi_major_axis_km": 6917.863828355163,
      "eccentricity": 0.00013512,
      "inclination_deg": 53.2164,
      "raan_deg": 134.5221,
      "arg_perigee_deg": 91.735,
      "mean_anomaly_deg": 268.3797,
      "mean_motion_rev_day": 15.08845418
    }
  ]
}